OBJECT A                
1 44879U 19093A   20224.10887878  .00000119  00000-0  22042-4 0  9996
2 44879  97.9560 299.7644 0014312 215.6653 144.3610 14.81419365 34794
OBJECT B                
1 44880U 19093B   20224.10749946  .00000138  00000-0  24494-4 0  9995
2 44880  97.9564 299.7713 0014429 216.4638 143.5600 14.81436771 34787
CAS-6 (TIANQIN 1)       
1 44881U 19093C   20224.10419144 -.00000025  00000-0  36688-5 0  9995
2 44881  97.9559 299.7797 0014089 215.4082 144.6199 14.81416341 34784
OBJECT D                
1 44882U 19093D   20224.09531937  .00000167  00000-0  28083-4 0  9994
2 44882  97.9599 299.8912 0015458 217.8043 142.2085 14.81525097 34780
CBERS 4A                
1 44883U 19093E   20224.08899282  .00000056  00000-0  13835-4 0  9990
2 44883  97.9567 299.8125 0001363  87.2484 272.8881 14.81521011 34797
OBJECT F                
1 44884U 19093F   20224.11189204  .00000179  00000-0  29467-4 0  9995
2 44884  97.9542 299.8623 0012810 222.4934 137.5289 14.81843864 34798
FLORIPASAT-1            
1 44885U 19093G   20224.21413704  .00000219  00000-0  34316-4 0  9996
2 44885  97.9560 300.0858 0013713 226.2074 133.8012 14.82058789 34815
OBJECT H                
1 44886U 19093H   20224.09072492  .00000133  00000-0  23393-4 0  9996
2 44886  97.9578 300.1394 0014082 233.3055 126.6865 14.82394665 34800
OBJECT J                
1 44887U 19093J   20224.09214509  .00000082  00000-0  16987-4 0  9998
2 44887  97.9573 300.1239 0013963 232.8503 127.1435 14.82377181 34806
CZ-4B R/B               
1 44888U 19093K   20223.94469789  .00000161  00000-0  12400-4 0  9998
2 44888  97.8634 307.7480 0122594 300.8590  58.0626 15.11114177 35462
OBJECT L                
1 44889U 19093L   20224.07324194  .00000110  00000-0  21103-4 0  9998
2 44889  97.9538 299.4146 0015061 206.4658 153.5784 14.80794417 34695
OBJECT M                
1 44890U 19093M   20223.99075807  .00000341  00000-0  45166-4 0  9995
2 44890  97.9062 299.7108 0047533 238.4858 121.1730 14.85622139 34784
OBJECT N                
1 44891U 19093N   20224.15788236  .00000301  00000-0  40586-4 0  9999
2 44891  98.0151 303.2619 0024599 344.4030  15.6422 14.86263790 34826
